{
  "norad_id": 67184,
  "name": "STARLINK-35910",
  "history": [
    {
      "epoch": "2026-03-28T14:39:55.774944",
      "apogee_km": 484.33158948830624,
      "perigee_km": 481.66535224432755,
      "latitude_deg": -34.89703996615113,
      "longitude_deg": -122.93802784010768,
      "semi_major_axis_km": 6861.135470866317,
      "eccentricity": 0.0001943,
      "inclination_deg": 42.9984,
      "raan_deg": 203.4393,
      "arg_perigee_deg": 283.989,
      "mean_anomaly_deg": 76.0746,
      "mean_motion_rev_day": 15.27596907
    }
  ]
}