{"fetched_at":"2026-03-29T02:12:04Z","count":15717,"tles":[{"name":"STARLINK-35910","line1":"1 67184U 25303X   26087.61106222  .00025486  00000+0  93197-3 0  9998","line2":"2 67184  42.9984 203.4393 0001943 283.9890  76.0746 15.27596907 15630","category":"Starlink"}]}